CCSDS_OMM_VERS = 2.0
CREATION_DATE  = 
ORIGINATOR     = 

OBJECT_NAME    = STARLINK-36739
OBJECT_ID      = 2026-032F
CENTER_NAME    = EARTH
REF_FRAME      = TEME
TIME_SYSTEM    = UTC
MEAN_ELEMENT_THEORY = SGP/SGP4

EPOCH          = 2026-03-06T14:00:01.000224
MEAN_MOTION    = 15.75227302
ECCENTRICITY   = .00016895
INCLINATION    = 97.2849
RA_OF_ASC_NODE = 251.9690
ARG_OF_PERICENTER = 91.8390
MEAN_ANOMALY   = 55.3961

EPHEMERIS_TYPE = 0
CLASSIFICATION_TYPE = U
NORAD_CAT_ID   = 67802
ELEMENT_SET_NO = 999
REV_AT_EPOCH   = 428
BSTAR          = -.4811115E-3
MEAN_MOTION_DOT = -.71412E-3
MEAN_MOTION_DDOT = 0

CCSDS_OMM_VERS = 2.0
CREATION_DATE  = 
ORIGINATOR     = 

OBJECT_NAME    = STARLINK-36768
OBJECT_ID      = 2026-032G
CENTER_NAME    = EARTH
REF_FRAME      = TEME
TIME_SYSTEM    = UTC
MEAN_ELEMENT_THEORY = SGP/SGP4

EPOCH          = 2026-03-06T13:40:25.249152
MEAN_MOTION    = 15.75236352
ECCENTRICITY   = .00014428
INCLINATION    = 97.2847
RA_OF_ASC_NODE = 251.9237
ARG_OF_PERICENTER = 84.8550
MEAN_ANOMALY   = 275.2880

EPHEMERIS_TYPE = 0
CLASSIFICATION_TYPE = U
NORAD_CAT_ID   = 67803
ELEMENT_SET_NO = 999
REV_AT_EPOCH   = 429
BSTAR          = .86574039E-3
MEAN_MOTION_DOT = .131267E-2
MEAN_MOTION_DDOT = 0

CCSDS_OMM_VERS = 2.0
CREATION_DATE  = 
ORIGINATOR     = 

OBJECT_NAME    = STARLINK-36792
OBJECT_ID      = 2026-032H
CENTER_NAME    = EARTH
REF_FRAME      = TEME
TIME_SYSTEM    = UTC
MEAN_ELEMENT_THEORY = SGP/SGP4

EPOCH          = 2026-03-06T13:43:58.842912
MEAN_MOTION    = 15.75236636
ECCENTRICITY   = .00014649
INCLINATION    = 97.2848
RA_OF_ASC_NODE = 251.9202
ARG_OF_PERICENTER = 38.7502
MEAN_ANOMALY   = 321.3868

EPHEMERIS_TYPE = 0
CLASSIFICATION_TYPE = U
NORAD_CAT_ID   = 67804
ELEMENT_SET_NO = 999
REV_AT_EPOCH   = 429
BSTAR          = .11066525E-2
MEAN_MOTION_DOT = .168573E-2
MEAN_MOTION_DDOT = 0

CCSDS_OMM_VERS = 2.0
CREATION_DATE  = 
ORIGINATOR     = 

OBJECT_NAME    = STARLINK-36782
OBJECT_ID      = 2026-032J
CENTER_NAME    = EARTH
REF_FRAME      = TEME
TIME_SYSTEM    = UTC
MEAN_ELEMENT_THEORY = SGP/SGP4

EPOCH          = 2026-03-06T14:42:29.709504
MEAN_MOTION    = 15.80485206
ECCENTRICITY   = .00014119
INCLINATION    = 97.2831
RA_OF_ASC_NODE = 252.0180
ARG_OF_PERICENTER = 93.0699
MEAN_ANOMALY   = 267.0731

EPHEMERIS_TYPE = 0
CLASSIFICATION_TYPE = U
NORAD_CAT_ID   = 67805
ELEMENT_SET_NO = 999
REV_AT_EPOCH   = 430
BSTAR          = -.22257926E-2
MEAN_MOTION_DOT = -.401373E-2
MEAN_MOTION_DDOT = 0

CCSDS_OMM_VERS = 2.0
CREATION_DATE  = 
ORIGINATOR     = 

OBJECT_NAME    = STARLINK-36389
OBJECT_ID      = 2026-032K
CENTER_NAME    = EARTH
REF_FRAME      = TEME
TIME_SYSTEM    = UTC
MEAN_ELEMENT_THEORY = SGP/SGP4

EPOCH          = 2026-03-06T14:00:01.000224
MEAN_MOTION    = 15.75118444
ECCENTRICITY   = .00012271
INCLINATION    = 97.2841
RA_OF_ASC_NODE = 251.9601
ARG_OF_PERICENTER = 80.0330
MEAN_ANOMALY   = 47.1766

EPHEMERIS_TYPE = 0
CLASSIFICATION_TYPE = U
NORAD_CAT_ID   = 67806
ELEMENT_SET_NO = 999
REV_AT_EPOCH   = 428
BSTAR          = .19617237E-3
MEAN_MOTION_DOT = .2914E-3
MEAN_MOTION_DDOT = 0

CCSDS_OMM_VERS = 2.0
CREATION_DATE  = 
ORIGINATOR     = 

OBJECT_NAME    = STARLINK-36382
OBJECT_ID      = 2026-032L
CENTER_NAME    = EARTH
REF_FRAME      = TEME
TIME_SYSTEM    = UTC
MEAN_ELEMENT_THEORY = SGP/SGP4

EPOCH          = 2026-03-06T14:00:01.000224
MEAN_MOTION    = 15.75228820
ECCENTRICITY   = .00015824
INCLINATION    = 97.2843
RA_OF_ASC_NODE = 251.9640
ARG_OF_PERICENTER = 78.1895
MEAN_ANOMALY   = 61.0464

EPHEMERIS_TYPE = 0
CLASSIFICATION_TYPE = U
NORAD_CAT_ID   = 67807
ELEMENT_SET_NO = 999
REV_AT_EPOCH   = 422
BSTAR          = -.39117591E-3
MEAN_MOTION_DOT = -.5818E-3
MEAN_MOTION_DDOT = 0

CCSDS_OMM_VERS = 2.0
CREATION_DATE  = 
ORIGINATOR     = 

OBJECT_NAME    = STARLINK-36811
OBJECT_ID      = 2026-032M
CENTER_NAME    = EARTH
REF_FRAME      = TEME
TIME_SYSTEM    = UTC
MEAN_ELEMENT_THEORY = SGP/SGP4

EPOCH          = 2026-03-06T14:00:01.000224
MEAN_MOTION    = 15.75204312
ECCENTRICITY   = .00016718
INCLINATION    = 97.2844
RA_OF_ASC_NODE = 251.9882
ARG_OF_PERICENTER = 77.2240
MEAN_ANOMALY   = 118.0306

EPHEMERIS_TYPE = 0
CLASSIFICATION_TYPE = U
NORAD_CAT_ID   = 67808
ELEMENT_SET_NO = 999
REV_AT_EPOCH   = 428
BSTAR          = -.35057721E-3
MEAN_MOTION_DOT = -.52137E-3
MEAN_MOTION_DDOT = 0

CCSDS_OMM_VERS = 2.0
CREATION_DATE  = 
ORIGINATOR     = 

OBJECT_NAME    = STARLINK-36795
OBJECT_ID      = 2026-032N
CENTER_NAME    = EARTH
REF_FRAME      = TEME
TIME_SYSTEM    = UTC
MEAN_ELEMENT_THEORY = SGP/SGP4

EPOCH          = 2026-03-06T13:34:49.926432
MEAN_MOTION    = 15.75229867
ECCENTRICITY   = .00012135
INCLINATION    = 97.2846
RA_OF_ASC_NODE = 251.9280
ARG_OF_PERICENTER = 64.0587
MEAN_ANOMALY   = 296.0803

EPHEMERIS_TYPE = 0
CLASSIFICATION_TYPE = U
NORAD_CAT_ID   = 67809
ELEMENT_SET_NO = 999
REV_AT_EPOCH   = 429
BSTAR          = .85167196E-3
MEAN_MOTION_DOT = .129061E-2
MEAN_MOTION_DDOT = 0

CCSDS_OMM_VERS = 2.0
CREATION_DATE  = 
ORIGINATOR     = 

OBJECT_NAME    = STARLINK-36807
OBJECT_ID      = 2026-032P
CENTER_NAME    = EARTH
REF_FRAME      = TEME
TIME_SYSTEM    = UTC
MEAN_ELEMENT_THEORY = SGP/SGP4

EPOCH          = 2026-03-06T14:00:01.000224
MEAN_MOTION    = 15.75253476
ECCENTRICITY   = .00018078
INCLINATION    = 97.2843
RA_OF_ASC_NODE = 251.9847
ARG_OF_PERICENTER = 84.9933
MEAN_ANOMALY   = 104.2308

EPHEMERIS_TYPE = 0
CLASSIFICATION_TYPE = U
NORAD_CAT_ID   = 67810
ELEMENT_SET_NO = 999
REV_AT_EPOCH   = 428
BSTAR          = -.58900707E-3
MEAN_MOTION_DOT = -.87337E-3
MEAN_MOTION_DDOT = 0

CCSDS_OMM_VERS = 2.0
CREATION_DATE  = 
ORIGINATOR     = 

OBJECT_NAME    = STARLINK-36733
OBJECT_ID      = 2026-032Q
CENTER_NAME    = EARTH
REF_FRAME      = TEME
TIME_SYSTEM    = UTC
MEAN_ELEMENT_THEORY = SGP/SGP4

EPOCH          = 2026-03-06T14:32:55.300704
MEAN_MOTION    = 15.80863460
ECCENTRICITY   = .00013779
INCLINATION    = 97.2822
RA_OF_ASC_NODE = 252.0256
ARG_OF_PERICENTER = 95.1087
MEAN_ANOMALY   = 265.0339

EPHEMERIS_TYPE = 0
CLASSIFICATION_TYPE = U
NORAD_CAT_ID   = 67811
ELEMENT_SET_NO = 999
REV_AT_EPOCH   = 430
BSTAR          = .81353634E-3
MEAN_MOTION_DOT = .158903E-2
MEAN_MOTION_DDOT = 0

CCSDS_OMM_VERS = 2.0
CREATION_DATE  = 
ORIGINATOR     = 

OBJECT_NAME    = STARLINK-36377
OBJECT_ID      = 2026-032R
CENTER_NAME    = EARTH
REF_FRAME      = TEME
TIME_SYSTEM    = UTC
MEAN_ELEMENT_THEORY = SGP/SGP4

EPOCH          = 2026-03-06T14:28:27.361344
MEAN_MOTION    = 15.80267499
ECCENTRICITY   = .00020461
INCLINATION    = 97.2823
RA_OF_ASC_NODE = 252.0301
ARG_OF_PERICENTER = 125.5676
MEAN_ANOMALY   = 234.5783

EPHEMERIS_TYPE = 0
CLASSIFICATION_TYPE = U
NORAD_CAT_ID   = 67812
ELEMENT_SET_NO = 999
REV_AT_EPOCH   = 430
BSTAR          = -.31420657E-2
MEAN_MOTION_DOT = -.551601E-2
MEAN_MOTION_DDOT = 0

CCSDS_OMM_VERS = 2.0
CREATION_DATE  = 
ORIGINATOR     = 

OBJECT_NAME    = STARLINK-36732
OBJECT_ID      = 2026-032S
CENTER_NAME    = EARTH
REF_FRAME      = TEME
TIME_SYSTEM    = UTC
MEAN_ELEMENT_THEORY = SGP/SGP4

EPOCH          = 2026-03-06T14:00:01.000224
MEAN_MOTION    = 15.75107819
ECCENTRICITY   = .00010517
INCLINATION    = 97.2840
RA_OF_ASC_NODE = 252.0001
ARG_OF_PERICENTER = 52.5001
MEAN_ANOMALY   = 176.7596

EPHEMERIS_TYPE = 0
CLASSIFICATION_TYPE = U
NORAD_CAT_ID   = 67813
ELEMENT_SET_NO = 999
REV_AT_EPOCH   = 428
BSTAR          = .71770132E-3
MEAN_MOTION_DOT = .107896E-2
MEAN_MOTION_DDOT = 0

