STARLINK-36739          
1 67802U 26032F   26065.58334491 -.00071412  00000+0 -48111-3 0  9996
2 67802  97.2849 251.9690 0001689  91.8390  55.3961 15.75227302  4287
STARLINK-36768          
1 67803U 26032G   26065.56973668  .00131267  00000+0  86574-3 0  9998
2 67803  97.2847 251.9237 0001442  84.8550 275.2880 15.75236352  4299
STARLINK-36792          
1 67804U 26032H   26065.57220883  .00168573  00000+0  11067-2 0  9998
2 67804  97.2848 251.9202 0001464  38.7502 321.3868 15.75236636  4296
STARLINK-36782          
1 67805U 26032J   26065.61284386 -.00401373  00000+0 -22258-2 0  9996
2 67805  97.2831 252.0180 0001411  93.0699 267.0731 15.80485206  4301
STARLINK-36389          
1 67806U 26032K   26065.58334491  .00029140  00000+0  19617-3 0  9998
2 67806  97.2841 251.9601 0001227  80.0330  47.1766 15.75118444  4285
STARLINK-36382          
1 67807U 26032L   26065.58334491 -.00058180  00000+0 -39118-3 0  9995
2 67807  97.2843 251.9640 0001582  78.1895  61.0464 15.75228820  4223
STARLINK-36811          
1 67808U 26032M   26065.58334491 -.00052137  00000+0 -35058-3 0  9991
2 67808  97.2844 251.9882 0001671  77.2240 118.0306 15.75204312  4280
STARLINK-36795          
1 67809U 26032N   26065.56585563  .00129061  00000+0  85167-3 0  9993
2 67809  97.2846 251.9280 0001213  64.0587 296.0803 15.75229867  4297
STARLINK-36807          
1 67810U 26032P   26065.58334491 -.00087337  00000+0 -58901-3 0  9996
2 67810  97.2843 251.9847 0001807  84.9933 104.2308 15.75253476  4282
STARLINK-36733          
1 67811U 26032Q   26065.60619561  .00158903  00000+0  81354-3 0  9998
2 67811  97.2822 252.0256 0001377  95.1087 265.0339 15.80863460  4301
STARLINK-36377          
1 67812U 26032R   26065.60309446 -.00551601  00000+0 -31421-2 0  9990
2 67812  97.2823 252.0301 0002046 125.5676 234.5783 15.80267499  4304
STARLINK-36732          
1 67813U 26032S   26065.58334491  .00107896  00000+0  71770-3 0  9999
2 67813  97.2840 252.0001 0001051  52.5001 176.7596 15.75107819  4286
